NORAD_CAT_ID,OBJECT_NAME,OBJECT_TYPE,EPOCH,MEAN_MOTION,ECCENTRICITY,INCLINATION,RA_OF_ASC_NODE,ARG_OF_PERICENTER,MEAN_ANOMALY,BSTAR,MEAN_MOTION_DOT,MEAN_MOTION_DDOT,TLE_LINE0,TLE_LINE1,TLE_LINE2,SEMIMAJOR_AXIS,PERIOD,APOGEE,PERIGEE,DECAYED
52089.0,STARLINK-3722,PAYLOAD,2023-09-09 15:10:16,15.08839759,0.0001343,53.2166,223.5065,91.3699,268.7447,0.00012027,1.627e-05,0.0,0 STARLINK-3722,1 52089U 22029B   23252.63214042  .00001627  00000-0  12027-3 0  9996,2 52089  53.2166 223.5065 0001343  91.3699 268.7447 15.08839759 82968,6917.881,95.438,540.675,538.817,0.0
52089.0,STARLINK-3722,PAYLOAD,2023-09-10 02:17:59,15.08835273,0.0001371,53.217,221.4251,91.4479,268.6671,4.9574e-05,5.01e-06,0.0,0 STARLINK-3722,1 52089U 22029B   23253.09582637  .00000501  00000-0  49574-4 0  9993,2 52089  53.2170 221.4251 0001371  91.4479 268.6671 15.08835273 83039,6917.895,95.438,540.708,538.811,0.0
52089.0,STARLINK-3722,PAYLOAD,2023-09-10 07:04:08,15.08839958,0.0001377,53.2169,220.533,89.1103,271.0047,8.207e-05,1.018e-05,0.0,0 STARLINK-3722,1 52089U 22029B   23253.29454268  .00001018  00000-0  82070-4 0  9995,2 52089  53.2169 220.5330 0001377  89.1103 271.0047 15.08839958 83061,6917.881,95.438,540.698,538.793,0.0
52089.0,STARLINK-3722,PAYLOAD,2023-09-11 02:08:44,15.08880238,0.000161,53.2167,216.9645,75.9586,284.1585,-0.00054517,-8.964e-05,0.0,0 STARLINK-3722,1 52089U 22029B   23254.08940925 -.00008964  00000-0 -54517-3 0  9996,2 52089  53.2167 216.9645 0001610  75.9586 284.1585 15.08880238 83187,6917.757,95.435,540.736,538.509,0.0
52089.0,STARLINK-3722,PAYLOAD,2023-09-11 06:54:55,15.08848424,0.0001373,53.217,216.0728,90.0032,270.1118,8.0458e-05,9.93e-06,0.0,0 STARLINK-3722,1 52089U 22029B   23254.28813810  .00000993  00000-0  80458-4 0  9996,2 52089  53.2170 216.0728 0001373  90.0032 270.1118 15.08848424 83216,6917.855,95.437,540.669,538.77,0.0
52089.0,STARLINK-3722,PAYLOAD,2023-09-11 10:05:41,15.0884975,0.0001352,53.2167,215.4778,90.5271,269.5876,9.3923e-05,1.208e-05,0.0,0 STARLINK-3722,1 52089U 22029B   23254.42061646  .00001208  00000-0  93923-4 0  9995,2 52089  53.2167 215.4778 0001352  90.5271 269.5876 15.08849750 83235,6917.851,95.437,540.651,538.78,0.0
52089.0,STARLINK-3722,PAYLOAD,2023-09-11 14:51:51,15.08842505,0.0001276,53.2164,214.584,91.1144,268.9995,1.401e-05,-6.5e-07,0.0,0 STARLINK-3722,1 52089U 22029B   23254.61934268 -.00000065  00000-0  14010-4 0  9996,2 52089  53.2164 214.5840 0001276  91.1144 268.9995 15.08842505 83262,6917.873,95.437,540.62,538.855,0.0
52089.0,STARLINK-3722,PAYLOAD,2023-09-12 06:45:42,15.0884892,0.0001336,53.2167,211.6091,94.0835,266.031,0.00010109,1.322e-05,0.0,0 STARLINK-3722,1 52089U 22029B   23255.28173649  .00001322  00000-0  10109-3 0  9998,2 52089  53.2167 211.6091 0001336  94.0835 266.0310 15.08848920 83365,6917.853,95.437,540.642,538.794,0.0
52089.0,STARLINK-3722,PAYLOAD,2023-09-13 03:25:42,15.08848304,0.0001184,53.217,207.7448,100.3391,259.7734,6.3115e-05,7.17e-06,0.0,0 STARLINK-3722,1 52089U 22029B   23256.14285688  .00000717  00000-0  63115-4 0  9994,2 52089  53.2170 207.7448 0001184 100.3391 259.7734 15.08848304 83499,6917.855,95.437,540.539,538.901,0.0
52089.0,STARLINK-3722,PAYLOAD,2023-09-13 06:36:28,15.08856634,0.0001433,53.2169,207.1491,102.352,257.7633,0.00014286,1.987e-05,0.0,0 STARLINK-3722,1 52089U 22029B   23256.27532972  .00001987  00000-0  14286-3 0  9993,2 52089  53.2169 207.1491 0001433 102.3520 257.7633 15.08856634 83516,6917.83,95.437,540.686,538.703,0.0
52089.0,STARLINK-3722,PAYLOAD,2023-09-14 01:41:07,15.08833975,0.0001557,53.2163,203.5797,104.589,255.5275,-6.067e-05,-1.253e-05,0.0,0 STARLINK-3722,1 52089U 22029B   23257.07022564 -.00001253  00000-0 -60670-4 0  9990,2 52089  53.2163 203.5797 0001557 104.5890 255.5275 15.08833975 83634,6917.899,95.438,540.841,538.687,0.0
52089.0,STARLINK-3722,PAYLOAD,2023-09-14 06:27:17,15.08836625,0.0001447,53.2175,202.689,95.2448,264.871,-3.9919e-05,-9.23e-06,0.0,0 STARLINK-3722,1 52089U 22029B   23257.26894850 -.00000923  00000-0 -39919-4 0  9991,2 52089  53.2175 202.6890 0001447  95.2448 264.8710 15.08836625 83669,6917.891,95.438,540.757,538.755,0.0
52089.0,STARLINK-3722,PAYLOAD,2023-09-15 04:42:40,15.08846852,0.0001358,53.2168,198.5282,90.0852,270.0296,6.9287e-05,8.15e-06,0.0,0 STARLINK-3722,1 52089U 22029B   23258.19630326  .00000815  00000-0  69287-4 0  9999,2 52089  53.2168 198.5282 0001358  90.0852 270.0296 15.08846852 83809,6917.859,95.437,540.664,538.785,0.0
52089.0,STARLINK-3722,PAYLOAD,2023-09-16 02:58:04,15.08839504,0.0001177,53.2165,194.3656,95.3499,264.7627,0.00015709,2.213e-05,0.0,0 STARLINK-3722,1 52089U 22029B   23259.12366802  .00002213  00000-0  15709-3 0  9991,2 52089  53.2165 194.3656 0001177  95.3499 264.7627 15.08839504 83948,6917.882,95.438,540.561,538.933,0.0
52089.0,STARLINK-3722,PAYLOAD,2023-09-16 04:33:27,15.08842144,0.0001249,53.2169,194.0678,94.9631,265.1504,0.00019332,2.79e-05,0.0,0 STARLINK-3722,1 52089U 22029B   23259.18990666  .00002790  00000-0  19332-3 0  9994,2 52089  53.2169 194.0678 0001249  94.9631 265.1504 15.08842144 83950,6917.874,95.437,540.603,538.875,0.0
52089.0,STARLINK-3722,PAYLOAD,2023-09-17 01:13:29,15.08840206,0.0001402,53.2182,190.2043,98.8376,261.2775,4.8867e-05,4.9e-06,0.0,0 STARLINK-3722,1 52089U 22029B   23260.05103356  .00000490  00000-0  48867-4 0  9995,2 52089  53.2182 190.2043 0001402  98.8376 261.2775 15.08840206 84088,6917.88,95.438,540.715,538.775,0.0
52089.0,STARLINK-3722,PAYLOAD,2023-09-17 05:59:38,15.08845418,0.0001288,53.2175,189.3085,86.1115,274.0024,5.6931e-05,6.18e-06,0.0,0 STARLINK-3722,1 52089U 22029B   23260.24974992  .00000618  00000-0  56931-4 0  9991,2 52089  53.2175 189.3085 0001288  86.1115 274.0024 15.08845418 84111,6917.864,95.437,540.62,538.838,0.0
52089.0,STARLINK-3722,PAYLOAD,2023-09-18 02:39:38,15.08856526,0.0001275,53.2167,185.4445,92.7971,267.3167,0.00024761,3.657e-05,0.0,0 STARLINK-3722,1 52089U 22029B   23261.11086078  .00003657  00000-0  24761-3 0  9998,2 52089  53.2167 185.4445 0001275  92.7971 267.3167 15.08856526 84247,6917.83,95.437,540.577,538.813,0.0
52089.0,STARLINK-3722,PAYLOAD,2023-09-18 04:15:01,15.08857213,0.0001248,53.2164,185.1464,93.4566,266.6568,0.00023546,3.463e-05,0.0,0 STARLINK-3722,1 52089U 22029B   23261.17709939  .00003463  00000-0  23546-3 0  9997,2 52089  53.2164 185.1464 0001248  93.4566 266.6568 15.08857213 84252,6917.828,95.436,540.556,538.829,0.0
52089.0,STARLINK-3722,PAYLOAD,2023-09-18 18:33:30,15.08840193,0.0001547,53.217,182.4694,88.3445,271.7724,2.5244e-05,1.14e-06,0.0,0 STARLINK-3722,1 52089U 22029B   23261.77327013  .00000114  00000-0  25244-4 0  9990,2 52089  53.2170 182.4694 0001547  88.3445 271.7724 15.08840193 84345,6917.88,95.438,540.815,538.675,0.0
52089.0,STARLINK-3722,PAYLOAD,2023-09-19 02:30:25,15.08854302,0.0001323,53.2171,180.9819,87.6022,272.5121,0.00025048,3.702e-05,0.0,0 STARLINK-3722,1 52089U 22029B   23262.10446303  .00003702  00000-0  25048-3 0  9999,2 52089  53.2171 180.9819 0001323  87.6022 272.5121 15.08854302 84395,6917.837,95.437,540.617,538.786,0.0
52089.0,STARLINK-3722,PAYLOAD,2023-09-20 03:56:35,15.08850118,0.0001377,53.2166,176.2232,99.4562,260.6586,4.9037e-05,4.93e-06,0.0,0 STARLINK-3722,1 52089U 22029B   23263.16430020  .00000493  00000-0  49037-4 0  9994,2 52089  53.2166 176.2232 0001377  99.4562 260.6586 15.08850118 84557,6917.849,95.437,540.667,538.762,0.0
52089.0,STARLINK-3722,PAYLOAD,2023-09-20 11:53:31,15.08842393,0.000155,53.2166,174.7387,72.8061,287.31,-5.4638e-05,-1.158e-05,0.0,0 STARLINK-3722,1 52089U 22029B   23263.49550398 -.00001158  00000-0 -54638-4 0  9995,2 52089  53.2166 174.7387 0001550  72.8061 287.3100 15.08842393 84603,6917.873,95.437,540.81,538.666,0.0
52089.0,STARLINK-3722,PAYLOAD,2023-09-20 21:25:51,15.088276,0.0001689,53.2168,172.952,99.5343,260.584,-0.00024206,-4.137e-05,0.0,0 STARLINK-3722,1 52089U 22029B   23263.89295449 -.00004137  00000-0 -24206-3 0  9999,2 52089  53.2168 172.9520 0001689  99.5343 260.5840 15.08827600 84660,6917.918,95.438,540.952,538.615,0.0
52089.0,STARLINK-3722,PAYLOAD,2023-09-21 00:36:38,15.08829898,0.0001574,53.2183,172.3577,98.8299,261.2872,-0.0001559,-2.768e-05,0.0,0 STARLINK-3722,1 52089U 22029B   23264.02544135 -.00002768  00000-0 -15590-3 0  9998,2 52089  53.2183 172.3577 0001574  98.8299 261.2872 15.08829898 84684,6917.911,95.438,540.865,538.687,0.0
52089.0,STARLINK-3722,PAYLOAD,2023-09-21 03:47:24,15.08830302,0.0001597,53.2181,171.7623,102.7235,257.3936,-0.00013659,-2.461e-05,0.0,0 STARLINK-3722,1 52089U 22029B   23264.15792152 -.00002461  00000-0 -13659-3 0  9990,2 52089  53.2181 171.7623 0001597 102.7235 257.3936 15.08830302 84709,6917.91,95.438,540.88,538.67,0.0
52089.0,STARLINK-3722,PAYLOAD,2023-09-21 21:16:37,15.08846119,0.0001624,53.2189,168.4916,112.7455,247.3709,1.3971e-05,-6.6e-07,0.0,0 STARLINK-3722,1 52089U 22029B   23264.88654958 -.00000066  00000-0  13971-4 0  9997,2 52089  53.2189 168.4916 0001624 112.7455 247.3709 15.08846119 84813,6917.862,95.437,540.85,538.603,0.0
52089.0,STARLINK-3722,PAYLOAD,2023-09-22 03:38:09,15.08857065,0.0001515,53.2178,167.3045,89.3616,270.755,0.00011327,1.516e-05,0.0,0 STARLINK-3722,1 52089U 22029B   23265.15150225  .00001516  00000-0  11327-3 0  9998,2 52089  53.2178 167.3045 0001515  89.3616 270.7550 15.08857065 84859,6917.828,95.436,540.741,538.645,0.0
52089.0,STARLINK-3722,PAYLOAD,2023-09-22 17:56:39,15.08838429,0.0001848,53.2175,164.6264,95.2487,264.8716,0.00031329,4.701e-05,0.0,0 STARLINK-3722,1 52089U 22029B   23265.74767789  .00004701  00000-0  31329-3 0  9995,2 52089  53.2175 164.6264 0001848  95.2487 264.8716 15.08838429 84941,6917.885,95.438,541.029,538.472,0.0
52089.0,STARLINK-3722,PAYLOAD,2023-09-22 21:07:25,15.0884015,0.0001826,53.2163,164.031,104.2115,255.908,0.00029841,4.464e-05,0.0,0 STARLINK-3722,1 52089U 22029B   23265.88015641  .00004464  00000-0  29841-3 0  9995,2 52089  53.2163 164.0310 0001826 104.2115 255.9080 15.08840150 84960,6917.88,95.438,541.008,538.482,0.0
